{
  "type": "FeatureCollection",
  "features": [
    {
      "type": "Feature",
      "properties": {
        "norad_id": 66387,
        "name": "STARLINK-35661",
        "group": "last-30-days",
        "lat": -1.0878405827427262,
        "lon": -80.20899737943286,
        "alt_km": 447.957316176281,
        "timestamp": "2025-12-09T07:41:31.970937+00:00",
        "meta_object_name": "STARLINK-35661",
        "meta_object_id": "2025-257H",
        "meta_epoch": "2025-12-08T13:00:12.232800",
        "meta_mean_motion": 15.39635582,
        "meta_eccentricity": 0.0001289,
        "meta_inclination": 53.1587,
        "meta_ra_of_asc_node": 284.2774,
        "meta_arg_of_pericenter": 83.7946,
        "meta_mean_anomaly": 276.3206,
        "meta_ephemeris_type": 0,
        "meta_classification_type": "U",
        "meta_norad_cat_id": 66387,
        "meta_element_set_no": 999,
        "meta_rev_at_epoch": 572,
        "meta_bstar": 0.0012627,
        "meta_mean_motion_dot": 0.00050466,
        "meta_mean_motion_ddot": 0,
        "tle_line1": "1 66387U 25257H   25342.54180825  .00050466  00000+0  12627-2 0  9990",
        "tle_line2": "2 66387  53.1587 284.2774 0001289  83.7946 276.3206 15.39635582  5729"
      },
      "geometry": {
        "type": "Point",
        "coordinates": [
          -80.20899737943286,
          -1.0878405827427262
        ]
      }
    },
    {
      "type": "Feature",
      "properties": {
        "norad_id": 66388,
        "name": "STARLINK-35647",
        "group": "last-30-days",
        "lat": 17.785379091717374,
        "lon": -65.52175167132081,
        "alt_km": 444.33886323020124,
        "timestamp": "2025-12-09T07:41:31.970951+00:00",
        "meta_object_name": "STARLINK-35647",
        "meta_object_id": "2025-257J",
        "meta_epoch": "2025-12-08T22:14:51.247392",
        "meta_mean_motion": 15.3961376,
        "meta_eccentricity": 0.00023316,
        "meta_inclination": 53.1561,
        "meta_ra_of_asc_node": 282.4154,
        "meta_arg_of_pericenter": 335.7794,
        "meta_mean_anomaly": 24.3101,
        "meta_ephemeris_type": 0,
        "meta_classification_type": "U",
        "meta_norad_cat_id": 66388,
        "meta_element_set_no": 999,
        "meta_rev_at_epoch": 578,
        "meta_bstar": 0.0012818096,
        "meta_mean_motion_dot": 0.00051208,
        "meta_mean_motion_ddot": 0,
        "tle_line1": "1 66388U 25257J   25342.92698203  .00051208  00000+0  12818-2 0  9994",
        "tle_line2": "2 66388  53.1561 282.4154 0002331 335.7794  24.3101 15.39613760  5789"
      },
      "geometry": {
        "type": "Point",
        "coordinates": [
          -65.52175167132081,
          17.785379091717374
        ]
      }
    },
    {
      "type": "Feature",
      "properties": {
        "norad_id": 66389,
        "name": "STARLINK-35694",
        "group": "last-30-days",
        "lat": 37.82600971555376,
        "lon": -43.89689553427281,
        "alt_km": 441.7960158841315,
        "timestamp": "2025-12-09T07:41:31.970962+00:00",
        "meta_object_name": "STARLINK-35694",
        "meta_object_id": "2025-257K",
        "meta_epoch": "2025-12-09T00:00:02.000160",
        "meta_mean_motion": 15.39606164,
        "meta_eccentricity": 0.00010671,
        "meta_inclination": 53.1591,
        "meta_ra_of_asc_node": 282.015,
        "meta_arg_of_pericenter": 88.8638,
        "meta_mean_anomaly": 343.9185,
        "meta_ephemeris_type": 0,
        "meta_classification_type": "U",
        "meta_norad_cat_id": 66389,
        "meta_element_set_no": 999,
        "meta_rev_at_epoch": 589,
        "meta_bstar": 0.00029795747,
        "meta_mean_motion_dot": 0.00011531,
        "meta_mean_motion_ddot": 0,
        "tle_line1": "1 66389U 25257K   25343.00002315  .00011531  00000+0  29796-3 0  9997",
        "tle_line2": "2 66389  53.1591 282.0150 0001067  88.8638 343.9185 15.39606164  5897"
      },
      "geometry": {
        "type": "Point",
        "coordinates": [
          -43.89689553427281,
          37.82600971555376
        ]
      }
    },
    {
      "type": "Feature",
      "properties": {
        "norad_id": 66390,
        "name": "STARLINK-35665",
        "group": "last-30-days",
        "lat": -50.354141128383446,
        "lon": 164.88907494473847,
        "alt_km": 425.03812133821975,
        "timestamp": "2025-12-09T07:41:31.970976+00:00",
        "meta_object_name": "STARLINK-35665",
        "meta_object_id": "2025-257L",
        "meta_epoch": "2025-12-08T19:45:46.534464",
        "meta_mean_motion": 15.49358923,
        "meta_eccentricity": 0.00028978,
        "meta_inclination": 53.1601,
        "meta_ra_of_asc_node": 282.4733,
        "meta_arg_of_pericenter": 82.5198,
        "meta_mean_anomaly": 277.614,
        "meta_ephemeris_type": 0,
        "meta_classification_type": "U",
        "meta_norad_cat_id": 66390,
        "meta_element_set_no": 999,
        "meta_rev_at_epoch": 587,
        "meta_bstar": 0.0014952538,
        "meta_mean_motion_dot": 0.00083762,
        "meta_mean_motion_ddot": 0,
        "tle_line1": "1 66390U 25257L   25342.82345526  .00083762  00000+0  14953-2 0  9995",
        "tle_line2": "2 66390  53.1601 282.4733 0002897  82.5198 277.6140 15.49358923  5876"
      },
      "geometry": {
        "type": "Point",
        "coordinates": [
          164.88907494473847,
          -50.354141128383446
        ]
      }
    },
    {
      "type": "Feature",
      "properties": {
        "norad_id": 66391,
        "name": "STARLINK-35656",
        "group": "last-30-days",
        "lat": 36.64166780711462,
        "lon": -45.61103044510439,
        "alt_km": 442.4946676035015,
        "timestamp": "2025-12-09T07:41:31.970987+00:00",
        "meta_object_name": "STARLINK-35656",
        "meta_object_id": "2025-257M",
        "meta_epoch": "2025-12-08T22:08:09.865824",
        "meta_mean_motion": 15.39602173,
        "meta_eccentricity": 0.0003921,
        "meta_inclination": 53.1591,
        "meta_ra_of_asc_node": 282.3721,
        "meta_arg_of_pericenter": 315.0749,
        "meta_mean_anomaly": 44.9938,
        "meta_ephemeris_type": 0,
        "meta_classification_type": "U",
        "meta_norad_cat_id": 66391,
        "meta_element_set_no": 999,
        "meta_rev_at_epoch": 588,
        "meta_bstar": 0.0019213209,
        "meta_mean_motion_dot": 0.00077201,
        "meta_mean_motion_ddot": 0,
        "tle_line1": "1 66391U 25257M   25342.92233641  .00077201  00000+0  19213-2 0  9996",
        "tle_line2": "2 66391  53.1591 282.3721 0003921 315.0749  44.9938 15.39602173  5885"
      },
      "geometry": {
        "type": "Point",
        "coordinates": [
          -45.61103044510439,
          36.64166780711462
        ]
      }
    },
    {
      "type": "Feature",
      "properties": {
        "norad_id": 66392,
        "name": "STARLINK-35671",
        "group": "last-30-days",
        "lat": 19.295001024721362,
        "lon": -64.22684475626356,
        "alt_km": 444.63110733346366,
        "timestamp": "2025-12-09T07:41:31.970999+00:00",
        "meta_object_name": "STARLINK-35671",
        "meta_object_id": "2025-257N",
        "meta_epoch": "2025-12-08T22:14:22.326720",
        "meta_mean_motion": 15.39679807,
        "meta_eccentricity": 0.00014897,
        "meta_inclination": 53.1604,
        "meta_ra_of_asc_node": 282.4131,
        "meta_arg_of_pericenter": 91.8525,
        "meta_mean_anomaly": 268.265,
        "meta_ephemeris_type": 0,
        "meta_classification_type": "U",
        "meta_norad_cat_id": 66392,
        "meta_element_set_no": 999,
        "meta_rev_at_epoch": 578,
        "meta_bstar": 0.0014534201,
        "meta_mean_motion_dot": 0.00058297,
        "meta_mean_motion_ddot": 0,
        "tle_line1": "1 66392U 25257N   25342.92664730  .00058297  00000+0  14534-2 0  9999",
        "tle_line2": "2 66392  53.1604 282.4131 0001489  91.8525 268.2650 15.39679807  5784"
      },
      "geometry": {
        "type": "Point",
        "coordinates": [
          -64.22684475626356,
          19.295001024721362
        ]
      }
    },
    {
      "type": "Feature",
      "properties": {
        "norad_id": 66393,
        "name": "STARLINK-35652",
        "group": "last-30-days",
        "lat": 50.272900081696896,
        "lon": -15.09376983635143,
        "alt_km": 439.7784423782459,
        "timestamp": "2025-12-09T07:41:31.971010+00:00",
        "meta_object_name": "STARLINK-35652",
        "meta_object_id": "2025-257P",
        "meta_epoch": "2025-12-09T00:00:02.000160",
        "meta_mean_motion": 15.39604414,
        "meta_eccentricity": 0.00010714,
        "meta_inclination": 53.1588,
        "meta_ra_of_asc_node": 281.9669,
        "meta_arg_of_pericenter": 81.8812,
        "meta_mean_anomaly": 14.8215,
        "meta_ephemeris_type": 0,
        "meta_classification_type": "U",
        "meta_norad_cat_id": 66393,
        "meta_element_set_no": 999,
        "meta_rev_at_epoch": 589,
        "meta_bstar": 0.00030805172,
        "meta_mean_motion_dot": 0.00011935,
        "meta_mean_motion_ddot": 0,
        "tle_line1": "1 66393U 25257P   25343.00002315  .00011935  00000+0  30805-3 0  9993",
        "tle_line2": "2 66393  53.1588 281.9669 0001071  81.8812  14.8215 15.39604414  5897"
      },
      "geometry": {
        "type": "Point",
        "coordinates": [
          -15.09376983635143,
          50.272900081696896
        ]
      }
    }
  ]
}